{
 "type": "FeatureCollection",
 "features": [
 {
 "type": "Feature",
 "properties": {
 "name": "Inwood"
 },
 "geometry": {
 "type": "Polygon",
 "coordinates": [
 [
 [
 -73.9439759,
 40.8506982
 ],
 [
 -73.9274647,
 40.8785363
 ],
 [
 -73.917558,
 40.8747909
 ],
 [
 -73.9127989,
 40.8745706
 ],
 [
 -73.9099822,
 40.8725142
 ],
 [
 -73.9103707,
 40.8680341
 ],
 [
 -73.9156155,
 40.8614969
 ],
 [
 -73.9248423,
 40.8515798
 ],
 [
 -73.9287273,
 40.8456288
 ],
 [
 -73.9358174,
 40.8480533
 ],
 [
 -73.9358174,
 40.8480533
 ],
 [
 -73.9360117,
 40.8481268
 ],
 [
 -73.9439759,
 40.8506982
 ]
 ]
 ]
 }
 },
 {
 "type": "Feature",
 "properties": {
 "name": "Washington Heights"
 },
 "geometry": {
 "type": "Polygon",
 "coordinates": [
 [
 [
 -73.9443627,
 40.8509433
 ],
 [
 -73.9287257,
 40.8455066
 ],
 [
 -73.9340675,
 40.8346317
 ],
 [
 -73.9336746,
 40.8192767
 ],
 [
 -73.9587328,
 40.8300805
 ],
 [
 -73.9478592,
 40.8506494
 ],
 [
 -73.9478592,
 40.8507229
 ],
 [
 -73.9443627,
 40.8509433
 ]
 ]
 ]
 }
 },
 {
 "type": "Feature",
 "properties": {
 "name": "Harlem"
 },
 "geometry": {
 "type": "Polygon",
 "coordinates": [
 [
 [
 -73.9421282,
 40.8064076
 ],
 [
 -73.9375634,
 40.8127468
 ],
 [
 -73.9338726,
 40.8193363
 ],
 [
 -73.9587365,
 40.8301401
 ],
 [
 -73.9612617,
 40.8189688
 ],
 [
 -73.9511608,
 40.8101479
 ],
 [
 -73.9582509,
 40.8005907
 ],
 [
 -73.9494125,
 40.7970704
 ],
 [
 -73.9494125,
 40.7970704
 ],
 [
 -73.9421282,
 40.8064076
 ]
 ]
 ]
 }
 },
 {
 "type": "Feature",
 "properties": {
 "name": "East Harlem"
 },
 "geometry": {
 "type": "Polygon",
 "coordinates": [
 [
 [
 -73.9343582,
 40.8194358
 ],
 [
 -73.9335812,
 40.8159812
 ],
 [
 -73.9335812,
 40.8087772
 ],
 [
 -73.9277538,
 40.801352
 ],
 [
 -73.9286279,
 40.7948818
 ],
 [
 -73.934164,
 40.7895875
 ],
 [
 -73.9415455,
 40.7822337
 ],
 [
 -73.9558228,
 40.7878227
 ],
 [
 -73.9495097,
 40.7969406
 ],
 [
 -73.9405743,
 40.8084097
 ],
 [
 -73.9373692,
 40.8129674
 ],
 [
 -73.9343582,
 40.8194358
 ]
 ]
 ]
 }
 },
 {
 "type": "Feature",
 "properties": {
 "name": "Morningside Heights"
 },
 "geometry": {
 "type": "Polygon",
 "coordinates": [
 [
 [
 -73.9509981,
 40.8102715
 ],
 [
 -73.9583211,
 40.8005659
 ],
 [
 -73.9743081,
 40.8065958
 ],
 [
 -73.9613905,
 40.8190923
 ],
 [
 -73.9613905,
 40.8190923
 ],
 [
 -73.9509981,
 40.8102715
 ]
 ]
 ]
 }
 },
 {
 "type": "Feature",
 "properties": {
 "name": "Upper Westside"
 },
 "geometry": {
 "type": "Polygon",
 "coordinates": [
 [
 [
 -73.9545918,
 40.7990968
 ],
 [
 -73.949335,
 40.797022
 ],
 [
 -73.9557724,
 40.7878441
 ],
 [
 -73.9606437,
 40.7899914
 ],
 [
 -73.9731426,
 40.7723287
 ],
 [
 -73.9906251,
 40.7790217
 ],
 [
 -73.974211,
 40.8066693
 ],
 [
 -73.9545918,
 40.7990968
 ]
 ]
 ]
 }
 },
 {
 "type": "Feature",
 "properties": {
 "name": "Lincoln Center"
 },
 "geometry": {
 "type": "Polygon",
 "coordinates": [
 [
 [
 -73.9735322,
 40.7723885
 ],
 [
 -73.9762517,
 40.7654741
 ],
 [
 -73.9785826,
 40.762458
 ],
 [
 -73.9994645,
 40.7707703
 ],
 [
 -73.9907232,
 40.7790815
 ],
 [
 -73.9907232,
 40.7790815
 ],
 [
 -73.9735322,
 40.7723885
 ]
 ]
 ]
 }
 },
 {
 "type": "Feature",
 "properties": {
 "name": "Hell's Kitchen"
 },
 "geometry": {
 "type": "Polygon",
 "coordinates": [
 [
 [
 -73.9846044,
 40.7650327
 ],
 [
 -73.9933456,
 40.7520846
 ],
 [
 -74.0074287,
 40.758044
 ],
 [
 -73.9997558,
 40.7709174
 ],
 [
 -73.9997558,
 40.7709174
 ],
 [
 -73.9846044,
 40.7650327
 ]
 ]
 ]
 }
 },
 {
 "type": "Feature",
 "properties": {
 "name": "Midtown"
 },
 "geometry": {
 "type": "Polygon",
 "coordinates": [
 [
 [
 -73.9848958,
 40.7649591
 ],
 [
 -73.978534,
 40.7624948
 ],
 [
 -73.976203,
 40.7655109
 ],
 [
 -73.9695985,
 40.762973
 ],
 [
 -73.9813097,
 40.7470029
 ],
 [
 -73.9933456,
 40.7520846
 ],
 [
 -73.9848958,
 40.7649591
 ]
 ]
 ]
 }
 },
 {
 "type": "Feature",
 "properties": {
 "name": "Upper Eastside"
 },
 "geometry": {
 "type": "Polygon",
 "coordinates": [
 [
 [
 -73.9418695,
 40.782391
 ],
 [
 -73.9409954,
 40.7740802
 ],
 [
 -73.9574094,
 40.7581911
 ],
 [
 -73.9761545,
 40.7655476
 ],
 [
 -73.9733379,
 40.7723885
 ],
 [
 -73.9608088,
 40.7898919
 ],
 [
 -73.9608088,
 40.7898919
 ],
 [
 -73.9418695,
 40.782391
 ]
 ]
 ]
 }
 },
 {
 "type": "Feature",
 "properties": {
 "name": "Murray Hill"
 },
 "geometry": {
 "type": "Polygon",
 "coordinates": [
 [
 [
 -73.98127,
 40.7469787
 ],
 [
 -73.9702958,
 40.742365
 ],
 [
 -73.9573247,
 40.7582064
 ],
 [
 -73.9695097,
 40.7630295
 ],
 [
 -73.9695097,
 40.7630295
 ],
 [
 -73.98127,
 40.7469787
 ]
 ]
 ]
 }
 },
 {
 "type": "Feature",
 "properties": {
 "name": "Chelsea"
 },
 "geometry": {
 "type": "Polygon",
 "coordinates": [
 [
 [
 -74.011647,
 40.7426044
 ],
 [
 -74.002921,
 40.7389711
 ],
 [
 -73.9973837,
 40.736548
 ],
 [
 -73.9878407,
 40.7497639
 ],
 [
 -74.0076044,
 40.7581366
 ],
 [
 -74.0076044,
 40.7581366
 ],
 [
 -74.011647,
 40.7426044
 ]
 ]
 ]
 }
 },
 {
 "type": "Feature",
 "properties": {
 "name": "Nomad"
 },
 "geometry": {
 "type": "Polygon",
 "coordinates": [
 [
 [
 -73.9879971,
 40.7496454
 ],
 [
 -73.9814265,
 40.7469787
 ],
 [
 -73.9909695,
 40.7338215
 ],
 [
 -73.9974619,
 40.7364887
 ],
 [
 -73.9879971,
 40.7496454
 ]
 ]
 ]
 }
 },
 {
 "type": "Feature",
 "properties": {
 "name": "Gramercy Park"
 },
 "geometry": {
 "type": "Polygon",
 "coordinates": [
 [
 [
 -73.981397,
 40.7469848
 ],
 [
 -73.970319,
 40.7426525
 ],
 [
 -73.9712577,
 40.726827
 ],
 [
 -73.990422,
 40.7345921
 ],
 [
 -73.9912037,
 40.7339647
 ],
 [
 -73.981397,
 40.7469848
 ]
 ]
 ]
 }
 },
 {
 "type": "Feature",
 "properties": {
 "name": "East Village"
 },
 "geometry": {
 "type": "Polygon",
 "coordinates": [
 [
 [
 -73.9906567,
 40.7346499
 ],
 [
 -73.9912189,
 40.7338571
 ],
 [
 -73.9916736,
 40.7316269
 ],
 [
 -73.9926122,
 40.7243358
 ],
 [
 -73.9726657,
 40.7179924
 ],
 [
 -73.9708666,
 40.7266477
 ],
 [
 -73.9708666,
 40.7266477
 ],
 [
 -73.9906567,
 40.7346499
 ]
 ]
 ]
 }
 },
 {
 "type": "Feature",
 "properties": {
 "name": "Lower Eastside"
 },
 "geometry": {
 "type": "Polygon",
 "coordinates": [
 [
 [
 -73.9929016,
 40.7244887
 ],
 [
 -73.9962652,
 40.7158332
 ],
 [
 -73.9913372,
 40.7087182
 ],
 [
 -73.9767879,
 40.7103784
 ],
 [
 -73.972564,
 40.7180268
 ],
 [
 -73.9929016,
 40.7244887
 ]
 ]
 ]
 }
 },
 {
 "type": "Feature",
 "properties": {
 "name": "Chinatown"
 },
 "geometry": {
 "type": "Polygon",
 "coordinates": [
 [
 [
 -73.9923541,
 40.7094789
 ],
 [
 -73.9964216,
 40.7161196
 ],
 [
 -73.9980642,
 40.7135108
 ],
 [
 -74.0021318,
 40.7152895
 ],
 [
 -74.0051042,
 40.7120878
 ],
 [
 -73.9989247,
 40.7076408
 ],
 [
 -73.9989247,
 40.7076408
 ],
 [
 -73.9923541,
 40.7094789
 ]
 ]
 ]
 }
 },
 {
 "type": "Feature",
 "properties": {
 "name": "West Village"
 },
 "geometry": {
 "type": "Polygon",
 "coordinates": [
 [
 [
 -73.9912481,
 40.7339537
 ],
 [
 -73.9925778,
 40.7242916
 ],
 [
 -73.9952374,
 40.7250067
 ],
 [
 -74.0029031,
 40.7283263
 ],
 [
 -74.0109838,
 40.7290353
 ],
 [
 -74.0117422,
 40.742677
 ],
 [
 -73.9912481,
 40.7339537
 ]
 ]
 ]
 }
 },
 {
 "type": "Feature",
 "properties": {
 "name": "Soho"
 },
 "geometry": {
 "type": "Polygon",
 "coordinates": [
 [
 [
 -73.9930959,
 40.7241892
 ],
 [
 -73.9961931,
 40.716141
 ],
 [
 -73.9981525,
 40.7136018
 ],
 [
 -74.0021346,
 40.7153745
 ],
 [
 -74.0055809,
 40.7174413
 ],
 [
 -74.0136295,
 40.7218279
 ],
 [
 -74.0112998,
 40.7290751
 ],
 [
 -74.0027667,
 40.7283566
 ],
 [
 -74.0027667,
 40.7283566
 ],
 [
 -73.9930959,
 40.7241892
 ]
 ]
 ]
 }
 },
 {
 "type": "Feature",
 "properties": {
 "name": "Tribeca"
 },
 "geometry": {
 "type": "Polygon",
 "coordinates": [
 [
 [
 -74.0139912,
 40.722102
 ],
 [
 -74.002054,
 40.715385
 ],
 [
 -74.0061235,
 40.7110665
 ],
 [
 -74.008927,
 40.7113407
 ],
 [
 -74.020412,
 40.7156592
 ],
 [
 -74.020412,
 40.7156592
 ],
 [
 -74.0139912,
 40.722102
 ]
 ]
 ]
 }
 },
 {
 "type": "Feature",
 "properties": {
 "name": "FiDi"
 },
 "geometry": {
 "type": "Polygon",
 "coordinates": [
 [
 [
 -74.0191456,
 40.7153164
 ],
 [
 -74.020683,
 40.7050339
 ],
 [
 -73.9964468,
 40.7060622
 ],
 [
 -74.0052189,
 40.7120262
 ],
 [
 -74.0061232,
 40.7111351
 ],
 [
 -74.0091075,
 40.7113407
 ],
 [
 -74.0091075,
 40.7113407
 ],
 [
 -74.0191456,
 40.7153164
 ]
 ]
 ]
 }
 },
 {
 "type": "Feature",
 "properties": {
 "name": "Greenpoint"
 },
 "geometry": {
 "type": "Polygon",
 "coordinates": [
 [
 [
 -73.9620881,
 40.7361685
 ],
 [
 -73.9572047,
 40.7395261
 ],
 [
 -73.9517787,
 40.7390465
 ],
 [
 -73.9421927,
 40.7357574
 ],
 [
 -73.939751,
 40.7317829
 ],
 [
 -73.937038,
 40.7295214
 ],
 [
 -73.929682,
 40.7278826
 ],
 [
 -73.9266072,
 40.7234279
 ],
 [
 -73.924256,
 40.7200695
 ],
 [
 -73.9239847,
 40.7181504
 ],
 [
 -73.9227186,
 40.7163682
 ],
 [
 -73.9239847,
 40.7181504
 ],
 [
 -73.9241655,
 40.7204807
 ],
 [
 -73.9273307,
 40.7247301
 ],
 [
 -73.9372784,
 40.722674
 ],
 [
 -73.941167,
 40.7219201
 ],
 [
 -73.9461408,
 40.7191785
 ],
 [
 -73.9477686,
 40.7182874
 ],
 [
 -73.9490347,
 40.7191099
 ],
 [
 -73.9525616,
 40.7188358
 ],
 [
 -73.9562694,
 40.7213032
 ],
 [
 -73.9562694,
 40.7234279
 ],
 [
 -73.9585302,
 40.7249357
 ],
 [
 -73.9640466,
 40.7260322
 ],
 [
 -73.9640466,
 40.7260322
 ],
 [
 -73.9620881,
 40.7361685
 ]
 ]
 ]
 }
 },
 {
 "type": "Feature",
 "properties": {
 "name": "Williamsburg"
 },
 "geometry": {
 "type": "Polygon",
 "coordinates": [
 [
 [
 -73.9274211,
 40.7246958
 ],
 [
 -73.924889,
 40.720892
 ],
 [
 -73.9238942,
 40.7176706
 ],
 [
 -73.9227186,
 40.7164368
 ],
 [
 -73.9245272,
 40.7153401
 ],
 [
 -73.9241655,
 40.7143119
 ],
 [
 -73.9200056,
 40.7114329
 ],
 [
 -73.926155,
 40.7058802
 ],
 [
 -73.9335706,
 40.7027266
 ],
 [
 -73.9372784,
 40.7017668
 ],
 [
 -73.9420713,
 40.7007384
 ],
 [
 -73.9621475,
 40.6982017
 ],
 [
 -73.9621475,
 40.70019
 ],
 [
 -73.9680257,
 40.7039607
 ],
 [
 -73.9698344,
 40.7058117
 ],
 [
 -73.97101,
 40.7099248
 ],
 [
 -73.9641371,
 40.7261693
 ],
 [
 -73.9588015,
 40.7250728
 ],
 [
 -73.9562694,
 40.7234279
 ],
 [
 -73.9562694,
 40.7213718
 ],
 [
 -73.9525616,
 40.7190414
 ],
 [
 -73.9489443,
 40.71911
 ],
 [
 -73.9479495,
 40.7182875
 ],
 [
 -73.9408957,
 40.7219886
 ],
 [
 -73.9274211,
 40.7246958
 ]
 ]
 ]
 }
 },
 {
 "type": "Feature",
 "properties": {
 "name": "Bushwick"
 },
 "geometry": {
 "type": "Polygon",
 "coordinates": [
 [
 [
 -73.9221945,
 40.709308
 ],
 [
 -73.9114734,
 40.7030278
 ],
 [
 -73.9135201,
 40.7016978
 ],
 [
 -73.9036763,
 40.6974121
 ],
 [
 -73.9052357,
 40.6957865
 ],
 [
 -73.901532,
 40.6931262
 ],
 [
 -73.9061129,
 40.6878791
 ],
 [
 -73.9046509,
 40.6858837
 ],
 [
 -73.90699,
 40.6835925
 ],
 [
 -73.9031889,
 40.6813013
 ],
 [
 -73.9048458,
 40.6796752
 ],
 [
 -73.9419797,
 40.7007373
 ],
 [
 -73.9334029,
 40.7027323
 ],
 [
 -73.9259956,
 40.7060572
 ],
 [
 -73.9221945,
 40.709308
 ]
 ]
 ]
 }
 },
 {
 "type": "Feature",
 "properties": {
 "name": "Bedford-Stuyvesant"
 },
 "geometry": {
 "type": "Polygon",
 "coordinates": [
 [
 [
 -73.9620347,
 40.6979561
 ],
 [
 -73.9601477,
 40.6804559
 ],
 [
 -73.9515836,
 40.6783643
 ],
 [
 -73.9022312,
 40.6755022
 ],
 [
 -73.8997636,
 40.6769333
 ],
 [
 -73.904844,
 40.6796853
 ],
 [
 -73.9420034,
 40.7009274
 ],
 [
 -73.9420109,
 40.7009387
 ],
 [
 -73.9620347,
 40.6979561
 ]
 ]
 ]
 }
 },
 {
 "type": "Feature",
 "properties": {
 "name": "Fort Greene"
 },
 "geometry": {
 "type": "Polygon",
 "coordinates": [
 [
 [
 -73.9716223,
 40.7058905
 ],
 [
 -73.961897,
 40.6999483
 ],
 [
 -73.9601552,
 40.6803571
 ],
 [
 -73.9781543,
 40.6843199
 ],
 [
 -73.983525,
 40.6935653
 ],
 [
 -73.9785897,
 40.6933452
 ],
 [
 -73.9800413,
 40.6964267
 ],
 [
 -73.9841056,
 40.7087514
 ],
 [
 -73.9716223,
 40.7058905
 ]
 ]
 ]
 }
 },
 {
 "type": "Feature",
 "properties": {
 "name": "Downtown Brooklyn"
 },
 "geometry": {
 "type": "Polygon",
 "coordinates": [
 [
 [
 -73.984541,
 40.7076511
 ],
 [
 -73.9980404,
 40.7040199
 ],
 [
 -74.008056,
 40.6927949
 ],
 [
 -74.0213218,
 40.6791218
 ],
 [
 -74.0189723,
 40.6615561
 ],
 [
 -74.0015744,
 40.6675361
 ],
 [
 -73.9981797,
 40.6714917
 ],
 [
 -73.9904427,
 40.6815399
 ],
 [
 -73.9884288,
 40.6842125
 ],
 [
 -73.9805412,
 40.6810308
 ],
 [
 -73.9782994,
 40.6842098
 ],
 [
 -73.9832347,
 40.6935653
 ],
 [
 -73.9782994,
 40.6935653
 ],
 [
 -73.984541,
 40.7076511
 ]
 ]
 ]
 }
 },
 {
 "type": "Feature",
 "properties": {
 "name": "Park Slope"
 },
 "geometry": {
 "type": "Polygon",
 "coordinates": [
 [
 [
 -73.9778623,
 40.6837902
 ],
 [
 -73.9704782,
 40.6725902
 ],
 [
 -73.9822257,
 40.6566779
 ],
 [
 -73.9973296,
 40.6640617
 ],
 [
 -74.003539,
 40.6668622
 ],
 [
 -74.0016929,
 40.667626
 ],
 [
 -73.9886029,
 40.6840447
 ],
 [
 -73.9805474,
 40.6808631
 ],
 [
 -73.9778623,
 40.6837902
 ]
 ]
 ]
 }
 },
 {
 "type": "Feature",
 "properties": {
 "name": "Crown Heights"
 },
 "geometry": {
 "type": "Polygon",
 "coordinates": [
 [
 [
 -73.9777819,
 40.6837902
 ],
 [
 -73.9628458,
 40.6624068
 ],
 [
 -73.9435464,
 40.6643163
 ],
 [
 -73.9321345,
 40.6632979
 ],
 [
 -73.9027658,
 40.6755176
 ],
 [
 -73.9512661,
 40.6783177
 ],
 [
 -73.9650275,
 40.6814994
 ],
 [
 -73.9777819,
 40.6837902
 ]
 ]
 ]
 }
 },
 {
 "type": "Feature",
 "properties": {
 "name": "Sunset Park"
 },
 "geometry": {
 "type": "Polygon",
 "coordinates": [
 [
 [
 -74.0386068,
 40.6442947
 ],
 [
 -74.0156152,
 40.6337248
 ],
 [
 -73.984904,
 40.6576638
 ],
 [
 -74.0030286,
 40.6669568
 ],
 [
 -74.0188038,
 40.6617376
 ],
 [
 -74.0386068,
 40.6442947
 ]
 ]
 ]
 }
 },
 {
 "type": "Feature",
 "properties": {
 "name": "Borough Park"
 },
 "geometry": {
 "type": "Polygon",
 "coordinates": [
 [
 [
 -74.0162673,
 40.6342149
 ],
 [
 -73.9731373,
 40.6089935
 ],
 [
 -73.9820318,
 40.6567531
 ],
 [
 -73.9848848,
 40.6578989
 ],
 [
 -74.0107293,
 40.6376534
 ],
 [
 -74.0162673,
 40.6342149
 ]
 ]
 ]
 }
 },
 {
 "type": "Feature",
 "properties": {
 "name": "Long Island City"
 },
 "geometry": {
 "type": "Polygon",
 "coordinates": [
 [
 [
 -73.9510422,
 40.7552986
 ],
 [
 -73.93812,
 40.7500863
 ],
 [
 -73.9339244,
 40.7451278
 ],
 [
 -73.9357705,
 40.7344468
 ],
 [
 -73.9403016,
 40.7334294
 ],
 [
 -73.9424833,
 40.7362271
 ],
 [
 -73.9517135,
 40.7396603
 ],
 [
 -73.9570838,
 40.7396603
 ],
 [
 -73.9619506,
 40.73699
 ],
 [
 -73.9651392,
 40.739406
 ],
 [
 -73.9549021,
 40.7531374
 ],
 [
 -73.9510422,
 40.7552986
 ]
 ]
 ]
 }
 },
 {
 "type": "Feature",
 "properties": {
 "name": "Astoria"
 },
 "geometry": {
 "type": "Polygon",
 "coordinates": [
 [
 [
 -73.9526425,
 40.7559251
 ],
 [
 -73.9366995,
 40.7491872
 ],
 [
 -73.9256233,
 40.7519842
 ],
 [
 -73.9153862,
 40.753764
 ],
 [
 -73.9017927,
 40.7678737
 ],
 [
 -73.9168966,
 40.7705428
 ],
 [
 -73.9232738,
 40.7751181
 ],
 [
 -73.9274693,
 40.7804556
 ],
 [
 -73.937203,
 40.7782952
 ],
 [
 -73.939049,
 40.7700344
 ],
 [
 -73.9526425,
 40.7559251
 ]
 ]
 ]
 }
 },
 {
 "type": "Feature",
 "properties": {
 "name": "Steinway"
 },
 "geometry": {
 "type": "Polygon",
 "coordinates": [
 [
 [
 -73.9276057,
 40.7795835
 ],
 [
 -73.9113271,
 40.7927984
 ],
 [
 -73.8985726,
 40.7921631
 ],
 [
 -73.8871608,
 40.7783127
 ],
 [
 -73.8891746,
 40.774373
 ],
 [
 -73.8871608,
 40.7649678
 ],
 [
 -73.9022647,
 40.7678912
 ],
 [
 -73.9166973,
 40.7703061
 ],
 [
 -73.9232424,
 40.7748814
 ],
 [
 -73.9276057,
 40.7795835
 ]
 ]
 ]
 }
 },
 {
 "type": "Feature",
 "properties": {
 "name": "Mott Haven"
 },
 "geometry": {
 "type": "Polygon",
 "coordinates": [
 [
 [
 -73.9281091,
 40.8019456
 ],
 [
 -73.9106557,
 40.7953394
 ],
 [
 -73.9007543,
 40.8037241
 ],
 [
 -73.9049498,
 40.8124888
 ],
 [
 -73.9329759,
 40.8199823
 ],
 [
 -73.9334794,
 40.8085512
 ],
 [
 -73.9281091,
 40.8019456
 ]
 ]
 ]
 }
 },
 {
 "type": "Feature",
 "properties": {
 "name": "Jersey City"
 },
 "geometry": {
 "type": "Polygon",
 "coordinates": [
 [
 [
 -74.0248657,
 40.7285353
 ],
 [
 -74.0305716,
 40.7338765
 ],
 [
 -74.0498711,
 40.7370556
 ],
 [
 -74.0663176,
 40.7154348
 ],
 [
 -74.0448364,
 40.6971153
 ],
 [
 -74.0305716,
 40.7065301
 ],
 [
 -74.0305716,
 40.7065301
 ],
 [
 -74.0248657,
 40.7285353
 ]
 ]
 ]
 }
 },
 {
 "type": "Feature",
 "properties": {
 "name": "Hoboken"
 },
 "geometry": {
 "type": "Polygon",
 "coordinates": [
 [
 [
 -74.0303835,
 40.7327433
 ],
 [
 -74.0251811,
 40.7338879
 ],
 [
 -74.0203143,
 40.7476204
 ],
 [
 -74.0223281,
 40.7586807
 ],
 [
 -74.0404528,
 40.7638923
 ],
 [
 -74.0485082,
 40.7537228
 ],
 [
 -74.0538785,
 40.7518159
 ],
 [
 -74.0610948,
 40.7398644
 ],
 [
 -74.049683,
 40.7370669
 ],
 [
 -74.030887,
 40.7337607
 ],
 [
 -74.0303835,
 40.7327433
 ]
 ]
 ]
 }
 },
 {
 "type": "Feature",
 "properties": {
 "name": "Union City"
 },
 "geometry": {
 "type": "Polygon",
 "coordinates": [
 [
 [
 -74.0229465,
 40.7580585
 ],
 [
 -73.9976054,
 40.7852566
 ],
 [
 -74.0261351,
 40.7964377
 ],
 [
 -74.0476162,
 40.7658124
 ],
 [
 -74.0405677,
 40.7640329
 ],
 [
 -74.0226108,
 40.7588212
 ],
 [
 -74.0229465,
 40.7580585
 ]
 ]
 ]
 }
 },
 {
 "type": "Feature",
 "properties": {
 "name": "Fort Lee"
 },
 "geometry": {
 "type": "Polygon",
 "coordinates": [
 [
 [
 -73.966769,
 40.8408503
 ],
 [
 -73.9902639,
 40.8473251
 ],
 [
 -73.980866,
 40.8581149
 ],
 [
 -73.97516,
 40.8631918
 ],
 [
 -73.9726427,
 40.8732176
 ],
 [
 -73.9489799,
 40.8652225
 ],
 [
 -73.9489799,
 40.8653494
 ],
 [
 -73.966769,
 40.8408503
 ]
 ]
 ]
 }
 },
 {
 "type": "Feature",
 "properties": {
 "name": "Fort Wadsworth"
 },
 "geometry": {
 "type": "Polygon",
 "coordinates": [
 [
 [
 -74.0491441,
 40.6088413
 ],
 [
 -74.070114,
 40.6256686
 ],
 [
 -74.1018683,
 40.6172555
 ],
 [
 -74.0982735,
 40.6102059
 ],
 [
 -74.0566334,
 40.58473
 ],
 [
 -74.0566334,
 40.58473
 ],
 [
 -74.0491441,
 40.6088413
 ]
 ]
 ]
 }
 },
 {
 "type": "Feature",
 "properties": {
 "name": "Tompkinsville"
 },
 "geometry": {
 "type": "Polygon",
 "coordinates": [
 [
 [
 -74.1031398,
 40.6174981
 ],
 [
 -74.1247088,
 40.6284122
 ],
 [
 -74.1304006,
 40.6434161
 ],
 [
 -74.077976,
 40.6529623
 ],
 [
 -74.0531118,
 40.6413703
 ],
 [
 -74.0680902,
 40.6261385
 ],
 [
 -74.1031398,
 40.6174981
 ]
 ]
 ]
 }
 },
 {
 "type": "Feature",
 "properties": {
 "name": "Bay Ridge"
 },
 "geometry": {
 "type": "Polygon",
 "coordinates": [
 [
 [
 -74.0396312,
 40.6447799
 ],
 [
 -74.0153661,
 40.6334138
 ],
 [
 -74.0222562,
 40.5999864
 ],
 [
 -74.0378338,
 40.6006687
 ],
 [
 -74.0486182,
 40.6209089
 ],
 [
 -74.0396312,
 40.6447799
 ]
 ]
 ]
 }
 },
 {
 "type": "Feature",
 "properties": {
 "name": "Flushing"
 },
 "geometry": {
 "type": "Polygon",
 "coordinates": [
 [
 [
 -73.8465299,
 40.7643986
 ],
 [
 -73.8378424,
 40.7684826
 ],
 [
 -73.8267584,
 40.7782377
 ],
 [
 -73.8141765,
 40.77302
 ],
 [
 -73.8129782,
 40.7523721
 ],
 [
 -73.8201679,
 40.7462446
 ],
 [
 -73.8453317,
 40.7469255
 ],
 [
 -73.8468295,
 40.7478333
 ],
 [
 -73.8465299,
 40.7643986
 ]
 ]
 ]
 }
 },
 {
 "type": "Feature",
 "properties": {
 "name": "Jackson Heights"
 },
 "geometry": {
 "type": "Polygon",
 "coordinates": [
 [
 [
 -73.9151641,
 40.7540104
 ],
 [
 -73.9100714,
 40.7528757
 ],
 [
 -73.8992869,
 40.7544642
 ],
 [
 -73.8956921,
 40.7462943
 ],
 [
 -73.8468623,
 40.7535565
 ],
 [
 -73.8486597,
 40.7685323
 ],
 [
 -73.8552502,
 40.7766994
 ],
 [
 -73.8729249,
 40.7882678
 ],
 [
 -73.8864055,
 40.7789679
 ],
 [
 -73.888802,
 40.7746577
 ],
 [
 -73.8870046,
 40.7651289
 ],
 [
 -73.9019831,
 40.7680785
 ],
 [
 -73.9151641,
 40.7540104
 ]
 ]
 ]
 }
 },
 {
 "type": "Feature",
 "properties": {
 "name": "Newark"
 },
 "geometry": {
 "type": "Polygon",
 "coordinates": [
 [
 [
 -74.1535908,
 40.7339525
 ],
 [
 -74.1512286,
 40.7171699
 ],
 [
 -74.1609725,
 40.7095604
 ],
 [
 -74.1924187,
 40.7086651
 ],
 [
 -74.1977336,
 40.7168342
 ],
 [
 -74.189466,
 40.7478229
 ],
 [
 -74.1634823,
 40.7510664
 ],
 [
 -74.1391226,
 40.7489413
 ],
 [
 -74.1535908,
 40.7339525
 ]
 ]
 ]
 }
 },
 {
 "type": "Feature",
 "properties": {
 "name": "Westchester"
 },
 "geometry": {
 "type": "Polygon",
 "coordinates": [
 [
 [
 -73.9250782,
 40.9002328
 ],
 [
 -73.7994746,
 40.8490212
 ],
 [
 -73.6467922,
 40.9755768
 ],
 [
 -73.6591063,
 40.987197
 ],
 [
 -73.6554121,
 41.0127543
 ],
 [
 -73.7280651,
 41.1018947
 ],
 [
 -73.880335,
 41.0958127
 ],
 [
 -73.888557,
 41.0405867
 ],
 [
 -73.9250782,
 40.9002328
 ]
 ]
 ]
 }
 }
 ]
}