{"type":"FeatureCollection","features":[{"type":"Feature","properties":{"name":"Inwood"},"geometry":{"type":"Polygon","coordinates":[[[-73.943976,40.850698],[-73.936012,40.848127],[-73.935817,40.848053],[-73.935817,40.848053],[-73.928727,40.845629],[-73.924842,40.85158],[-73.915615,40.861497],[-73.910371,40.868034],[-73.909982,40.872514],[-73.912799,40.874571],[-73.917558,40.874791],[-73.927465,40.878536],[-73.943976,40.850698]]]}},{"type":"Feature","properties":{"name":"Washington Heights"},"geometry":{"type":"Polygon","coordinates":[[[-73.944363,40.850943],[-73.947859,40.850723],[-73.947859,40.850649],[-73.958733,40.830081],[-73.933675,40.819277],[-73.934067,40.834632],[-73.928726,40.845507],[-73.944363,40.850943]]]}},{"type":"Feature","properties":{"name":"Harlem"},"geometry":{"type":"Polygon","coordinates":[[[-73.942128,40.806408],[-73.937563,40.812747],[-73.933873,40.819336],[-73.958736,40.83014],[-73.961262,40.818969],[-73.951161,40.810148],[-73.958251,40.800591],[-73.949412,40.79707],[-73.949412,40.79707],[-73.942128,40.806408]]]}},{"type":"Feature","properties":{"name":"East Harlem"},"geometry":{"type":"Polygon","coordinates":[[[-73.934358,40.819436],[-73.937369,40.812967],[-73.940574,40.80841],[-73.94951,40.796941],[-73.955823,40.787823],[-73.941545,40.782234],[-73.934164,40.789588],[-73.928628,40.794882],[-73.927754,40.801352],[-73.933581,40.808777],[-73.933581,40.815981],[-73.934358,40.819436]]]}},{"type":"Feature","properties":{"name":"Morningside Heights"},"geometry":{"type":"Polygon","coordinates":[[[-73.950998,40.810272],[-73.96139,40.819092],[-73.96139,40.819092],[-73.974308,40.806596],[-73.958185,40.800347],[-73.950998,40.810272]]]}},{"type":"Feature","properties":{"name":"Upper Westside"},"geometry":{"type":"Polygon","coordinates":[[[-73.954592,40.799097],[-73.974211,40.806669],[-73.990625,40.779022],[-73.973143,40.772329],[-73.960644,40.789991],[-73.955772,40.787844],[-73.949335,40.797022],[-73.954592,40.799097]]]}},{"type":"Feature","properties":{"name":"Lincoln Center"},"geometry":{"type":"Polygon","coordinates":[[[-73.973532,40.772389],[-73.990723,40.779082],[-73.990723,40.779082],[-73.999464,40.77077],[-73.978583,40.762458],[-73.976252,40.765474],[-73.973532,40.772389]]]}},{"type":"Feature","properties":{"name":"Hell's Kitchen"},"geometry":{"type":"Polygon","coordinates":[[[-73.984604,40.765033],[-73.999756,40.770917],[-73.999756,40.770917],[-74.007429,40.758044],[-73.993346,40.752085],[-73.984604,40.765033]]]}},{"type":"Feature","properties":{"name":"Midtown"},"geometry":{"type":"Polygon","coordinates":[[[-73.984896,40.764959],[-73.993346,40.752085],[-73.98131,40.747003],[-73.969598,40.762973],[-73.976203,40.765511],[-73.978534,40.762495],[-73.984896,40.764959]]]}},{"type":"Feature","properties":{"name":"Upper Eastside"},"geometry":{"type":"Polygon","coordinates":[[[-73.941869,40.782391],[-73.960809,40.789892],[-73.960809,40.789892],[-73.973338,40.772389],[-73.976154,40.765548],[-73.957409,40.758191],[-73.940995,40.77408],[-73.941869,40.782391]]]}},{"type":"Feature","properties":{"name":"Murray Hill"},"geometry":{"type":"Polygon","coordinates":[[[-73.98127,40.746979],[-73.970296,40.742365],[-73.957325,40.758206],[-73.96951,40.76303],[-73.96951,40.76303],[-73.98127,40.746979]]]}},{"type":"Feature","properties":{"name":"Chelsea"},"geometry":{"type":"Polygon","coordinates":[[[-74.011647,40.742604],[-74.002921,40.738971],[-73.997384,40.736548],[-73.987841,40.749764],[-74.007604,40.758137],[-74.007604,40.758137],[-74.011647,40.742604]]]}},{"type":"Feature","properties":{"name":"Nomad"},"geometry":{"type":"Polygon","coordinates":[[[-73.987997,40.749645],[-73.997462,40.736489],[-73.990969,40.733822],[-73.981426,40.746979],[-73.987997,40.749645]]]}},{"type":"Feature","properties":{"name":"Gramercy Park"},"geometry":{"type":"Polygon","coordinates":[[[-73.981397,40.746985],[-73.991204,40.733965],[-73.990422,40.734592],[-73.971258,40.726827],[-73.970319,40.742653],[-73.981397,40.746985]]]}},{"type":"Feature","properties":{"name":"East Village"},"geometry":{"type":"Polygon","coordinates":[[[-73.990657,40.73465],[-73.991219,40.733857],[-73.991674,40.731627],[-73.992612,40.724336],[-73.972666,40.717992],[-73.970867,40.726648],[-73.970867,40.726648],[-73.990657,40.73465]]]}},{"type":"Feature","properties":{"name":"Lower Eastside"},"geometry":{"type":"Polygon","coordinates":[[[-73.992902,40.724489],[-73.996265,40.715833],[-73.991337,40.708718],[-73.976788,40.710378],[-73.972564,40.718027],[-73.992902,40.724489]]]}},{"type":"Feature","properties":{"name":"Chinatown"},"geometry":{"type":"Polygon","coordinates":[[[-73.992354,40.709479],[-73.996422,40.71612],[-73.998064,40.713511],[-74.002132,40.71529],[-74.005104,40.712088],[-73.998925,40.707641],[-73.998925,40.707641],[-73.992354,40.709479]]]}},{"type":"Feature","properties":{"name":"West Village"},"geometry":{"type":"Polygon","coordinates":[[[-73.991248,40.733954],[-74.011742,40.742677],[-74.010984,40.729035],[-74.002903,40.728326],[-73.995237,40.725007],[-73.992578,40.724292],[-73.991248,40.733954]]]}},{"type":"Feature","properties":{"name":"Soho"},"geometry":{"type":"Polygon","coordinates":[[[-73.993096,40.724189],[-74.002767,40.728357],[-74.002767,40.728357],[-74.0113,40.729075],[-74.013629,40.721828],[-74.005581,40.717441],[-74.002135,40.715375],[-73.998152,40.713602],[-73.996193,40.716141],[-73.993096,40.724189]]]}},{"type":"Feature","properties":{"name":"Tribeca"},"geometry":{"type":"Polygon","coordinates":[[[-74.013991,40.722102],[-74.020412,40.715659],[-74.020412,40.715659],[-74.008927,40.711341],[-74.006123,40.711067],[-74.002054,40.715385],[-74.013991,40.722102]]]}},{"type":"Feature","properties":{"name":"FiDi"},"geometry":{"type":"Polygon","coordinates":[[[-74.019146,40.715316],[-74.020683,40.705034],[-74.01372,40.698864],[-73.996447,40.706062],[-74.005219,40.712026],[-74.006123,40.711135],[-74.009107,40.711341],[-74.009107,40.711341],[-74.019146,40.715316]]]}},{"type":"Feature","properties":{"name":"Greenpoint"},"geometry":{"type":"Polygon","coordinates":[[[-73.962088,40.736169],[-73.964047,40.726032],[-73.964047,40.726032],[-73.95853,40.724936],[-73.956269,40.723428],[-73.956269,40.721303],[-73.952562,40.718836],[-73.949035,40.71911],[-73.947769,40.718287],[-73.946141,40.719179],[-73.941167,40.72192],[-73.937278,40.722674],[-73.927331,40.72473],[-73.924165,40.720481],[-73.923985,40.71815],[-73.922719,40.716368],[-73.923985,40.71815],[-73.924256,40.72007],[-73.926607,40.723428],[-73.929682,40.727883],[-73.937038,40.729521],[-73.939751,40.731783],[-73.942193,40.735757],[-73.951779,40.739047],[-73.957205,40.739526],[-73.962088,40.736169]]]}},{"type":"Feature","properties":{"name":"Williamsburg"},"geometry":{"type":"Polygon","coordinates":[[[-73.927421,40.724696],[-73.940896,40.721989],[-73.947949,40.718288],[-73.948944,40.71911],[-73.952562,40.719041],[-73.956269,40.721372],[-73.956269,40.723428],[-73.958801,40.725073],[-73.964137,40.726169],[-73.97101,40.709925],[-73.969834,40.705812],[-73.968026,40.703961],[-73.962147,40.70019],[-73.962147,40.698202],[-73.942071,40.700738],[-73.937278,40.701767],[-73.933571,40.702727],[-73.926155,40.70588],[-73.920006,40.711433],[-73.924165,40.714312],[-73.924527,40.71534],[-73.922719,40.716437],[-73.923894,40.717671],[-73.924889,40.720892],[-73.927421,40.724696]]]}},{"type":"Feature","properties":{"name":"Bushwick"},"geometry":{"type":"Polygon","coordinates":[[[-73.922194,40.709308],[-73.925996,40.706057],[-73.933403,40.702732],[-73.94198,40.700737],[-73.904846,40.679675],[-73.903189,40.681301],[-73.90699,40.683593],[-73.904651,40.685884],[-73.906113,40.687879],[-73.901532,40.693126],[-73.905236,40.695787],[-73.903676,40.697412],[-73.91352,40.701698],[-73.911473,40.703028],[-73.922194,40.709308]]]}},{"type":"Feature","properties":{"name":"Bedford-Stuyvesant"},"geometry":{"type":"Polygon","coordinates":[[[-73.962035,40.697956],[-73.960148,40.680456],[-73.951584,40.678364],[-73.902231,40.675502],[-73.899764,40.676933],[-73.904844,40.679685],[-73.942003,40.700927],[-73.942011,40.700939],[-73.962035,40.697956]]]}},{"type":"Feature","properties":{"name":"Fort Greene"},"geometry":{"type":"Polygon","coordinates":[[[-73.971622,40.705891],[-73.984106,40.708751],[-73.980041,40.696427],[-73.97859,40.693345],[-73.983525,40.693565],[-73.978154,40.68432],[-73.960155,40.680357],[-73.961897,40.699948],[-73.971622,40.705891]]]}},{"type":"Feature","properties":{"name":"Downtown Brooklyn"},"geometry":{"type":"Polygon","coordinates":[[[-73.984541,40.707651],[-73.99804,40.70402],[-74.008056,40.692795],[-74.021322,40.679122],[-74.018972,40.661556],[-74.001574,40.667536],[-73.99818,40.671492],[-73.990443,40.68154],[-73.988429,40.684213],[-73.980541,40.681031],[-73.978299,40.68421],[-73.983235,40.693565],[-73.978299,40.693565],[-73.984541,40.707651]]]}},{"type":"Feature","properties":{"name":"Park Slope"},"geometry":{"type":"Polygon","coordinates":[[[-73.977862,40.68379],[-73.980547,40.680863],[-73.988603,40.684045],[-74.001693,40.667626],[-74.003539,40.666862],[-73.99733,40.664062],[-73.982226,40.656678],[-73.970478,40.67259],[-73.977862,40.68379]]]}},{"type":"Feature","properties":{"name":"Crown Heights"},"geometry":{"type":"Polygon","coordinates":[[[-73.977782,40.68379],[-73.962846,40.662407],[-73.943546,40.664316],[-73.932134,40.663298],[-73.902766,40.675518],[-73.951266,40.678318],[-73.965027,40.681499],[-73.977782,40.68379]]]}},{"type":"Feature","properties":{"name":"Sunset Park"},"geometry":{"type":"Polygon","coordinates":[[[-74.038607,40.644295],[-74.015615,40.633725],[-73.984904,40.657664],[-74.003029,40.666957],[-74.018804,40.661738],[-74.038607,40.644295]]]}},{"type":"Feature","properties":{"name":"Borough Park"},"geometry":{"type":"Polygon","coordinates":[[[-74.016267,40.634215],[-73.973137,40.608994],[-73.982032,40.656753],[-73.984885,40.657899],[-74.010729,40.637653],[-74.016267,40.634215]]]}},{"type":"Feature","properties":{"name":"Long Island City"},"geometry":{"type":"Polygon","coordinates":[[[-73.951042,40.755299],[-73.954902,40.753137],[-73.965139,40.739406],[-73.961951,40.73699],[-73.957084,40.73966],[-73.951713,40.73966],[-73.942483,40.736227],[-73.940302,40.733429],[-73.93577,40.734447],[-73.933924,40.745128],[-73.93812,40.750086],[-73.951042,40.755299]]]}},{"type":"Feature","properties":{"name":"Astoria"},"geometry":{"type":"Polygon","coordinates":[[[-73.952642,40.755925],[-73.936699,40.749187],[-73.925623,40.751984],[-73.915386,40.753764],[-73.901793,40.767874],[-73.916897,40.770543],[-73.923274,40.775118],[-73.927469,40.780456],[-73.937203,40.778295],[-73.939049,40.770034],[-73.952642,40.755925]]]}},{"type":"Feature","properties":{"name":"Steinway"},"geometry":{"type":"Polygon","coordinates":[[[-73.927606,40.779584],[-73.923242,40.774881],[-73.916697,40.770306],[-73.902265,40.767891],[-73.887161,40.764968],[-73.889175,40.774373],[-73.887161,40.778313],[-73.898573,40.792163],[-73.911327,40.792798],[-73.927606,40.779584]]]}},{"type":"Feature","properties":{"name":"Mott Haven"},"geometry":{"type":"Polygon","coordinates":[[[-73.928109,40.801946],[-73.910656,40.795339],[-73.900754,40.803724],[-73.90495,40.812489],[-73.932976,40.819982],[-73.933479,40.808551],[-73.928109,40.801946]]]}},{"type":"Feature","properties":{"name":"Jersey City"},"geometry":{"type":"Polygon","coordinates":[[[-74.024866,40.728535],[-74.030572,40.733877],[-74.049871,40.737056],[-74.066318,40.715435],[-74.044836,40.697115],[-74.030572,40.70653],[-74.030572,40.70653],[-74.024866,40.728535]]]}},{"type":"Feature","properties":{"name":"Hoboken"},"geometry":{"type":"Polygon","coordinates":[[[-74.030383,40.732743],[-74.025181,40.733888],[-74.020314,40.74762],[-74.022328,40.758681],[-74.040453,40.763892],[-74.048508,40.753723],[-74.053878,40.751816],[-74.061095,40.739864],[-74.049683,40.737067],[-74.030887,40.733761],[-74.030383,40.732743]]]}},{"type":"Feature","properties":{"name":"Union City"},"geometry":{"type":"Polygon","coordinates":[[[-74.022946,40.758059],[-73.997605,40.785257],[-74.026135,40.796438],[-74.047616,40.765812],[-74.040568,40.764033],[-74.022611,40.758821],[-74.022946,40.758059]]]}},{"type":"Feature","properties":{"name":"Fort Lee"},"geometry":{"type":"Polygon","coordinates":[[[-73.966769,40.84085],[-73.94898,40.865349],[-73.94898,40.865223],[-73.972643,40.873218],[-73.97516,40.863192],[-73.980866,40.858115],[-73.990264,40.847325],[-73.966769,40.84085]]]}},{"type":"Feature","properties":{"name":"Fort Wadsworth"},"geometry":{"type":"Polygon","coordinates":[[[-74.049144,40.608841],[-74.070114,40.625669],[-74.101868,40.617256],[-74.098273,40.610206],[-74.056633,40.58473],[-74.056633,40.58473],[-74.049144,40.608841]]]}},{"type":"Feature","properties":{"name":"Tompkinsville"},"geometry":{"type":"Polygon","coordinates":[[[-74.10314,40.617498],[-74.06809,40.626139],[-74.053112,40.64137],[-74.077976,40.652962],[-74.130401,40.643416],[-74.124709,40.628412],[-74.10314,40.617498]]]}},{"type":"Feature","properties":{"name":"Bay Ridge"},"geometry":{"type":"Polygon","coordinates":[[[-74.039631,40.64478],[-74.048618,40.620909],[-74.037834,40.600669],[-74.022256,40.599986],[-74.015366,40.633414],[-74.039631,40.64478]]]}},{"type":"Feature","properties":{"name":"Flushing"},"geometry":{"type":"Polygon","coordinates":[[[-73.84653,40.764399],[-73.846829,40.747833],[-73.845332,40.746926],[-73.820168,40.746245],[-73.812978,40.752372],[-73.814176,40.77302],[-73.826758,40.778238],[-73.837842,40.768483],[-73.84653,40.764399]]]}},{"type":"Feature","properties":{"name":"Jackson Heights"},"geometry":{"type":"Polygon","coordinates":[[[-73.915164,40.75401],[-73.910071,40.752876],[-73.899287,40.754464],[-73.895692,40.746294],[-73.846862,40.753557],[-73.84866,40.768532],[-73.85525,40.776699],[-73.872925,40.788268],[-73.886405,40.778968],[-73.888802,40.774658],[-73.887005,40.765129],[-73.901983,40.768079],[-73.915164,40.75401]]]}},{"type":"Feature","properties":{"name":"Newark"},"geometry":{"type":"Polygon","coordinates":[[[-74.153591,40.733953],[-74.139123,40.748941],[-74.163482,40.751066],[-74.189466,40.747823],[-74.197734,40.716834],[-74.192419,40.708665],[-74.160972,40.70956],[-74.151229,40.71717],[-74.153591,40.733953]]]}},{"type":"Feature","properties":{"name":"Westchester"},"geometry":{"type":"Polygon","coordinates":[[[-73.925078,40.900233],[-73.799475,40.849021],[-73.646792,40.975577],[-73.659106,40.987197],[-73.655412,41.012754],[-73.728065,41.101895],[-73.880335,41.095813],[-73.888557,41.040587],[-73.925078,40.900233]]]}}]}
